#aV2011 10 15  0  0   .00000000      96 DD+AD WGS84 FIT  NGA
## 1657 518400.00000000   900.00000000 55849  .0000000000000
+   31     1  2  3  4  5  6  7  8  9 10 11 12 13 14 15 16 17
+         18 19 20 21 22 23 25 26 27 28 29 30 31 32  0  0  0
+          0  0  0  0  0  0  0  0  0  0  0  0  0  0  0  0  0
+          0  0  0  0  0  0  0  0  0  0  0  0  0  0  0  0  0
+          0  0  0  0  0  0  0  0  0  0  0  0  0  0  0  0  0
++         0  0  0  0  0  0  0  0  0  0  0  0  0  0  0  0  0
++         0  0  0  0  0  0  0  0  0  0  0  0  0  0  0  0  0
++         0  0  0  0  0  0  0  0  0  0  0  0  0  0  0  0  0
++         0  0  0  0  0  0  0  0  0  0  0  0  0  0  0  0  0
++         0  0  0  0  0  0  0  0  0  0  0  0  0  0  0  0  0
%c cc cc ccc ccc cccc cccc cccc cccc ccccc ccccc ccccc ccccc
%c cc cc ccc ccc cccc cccc cccc cccc ccccc ccccc ccccc ccccc
%f  0.0000000  0.000000000  0.00000000000  0.000000000000000
%f  0.0000000  0.000000000  0.00000000000  0.000000000000000
%i    0    0    0    0      0      0      0      0         0
%i    0    0    0    0      0      0      0      0         0
/*      NGA, ST. LOUIS,MO.                                  
/*   EPHEMERIS COMPUTED FROM  3 DAYS OF DATA                
/* CCCCCCCCCCCCCCCCCCCCCCCCCCCCCCCCCCCCCCCCCCCCCCCCCCCCCCCCC
/* CCCCCCCCCCCCCCCCCCCCCCCCCCCCCCCCCCCCCCCCCCCCCCCCCCCCCCCCC
*  2011 10 15 20 45   .00000000                                                 
P  1  22714.684969  13625.528865  -1984.719468     28.753470                    
V  1  -3533.313085   1313.787512 -31616.339741       .298344                    
P  2  -5480.882749 -18288.843153  18730.854632    360.972186                    
V  2  21550.449045   9571.087528  15218.465379       .017746                    
P  3  -2699.803514  19568.216917 -18070.013361    781.785211                    
V  3 -18630.928505  12387.025405  16912.430119       .051157                    
P  4  10523.111877 -11886.643131  21094.842673    261.523354                    
V  4  23911.994276  13327.541390  -4034.763808       .113377                    
P  5  -2374.818353 -26295.682779  -2238.352596   -232.157730                    
V  5   3065.179010  -2931.275342  31490.468674      -.051160                    
P  6  -8328.300899  19662.854266 -15498.120984    -48.951612                    
V  6 -18031.823582   9264.583997  21509.484084       .072453                    
P  7  23611.840272   4051.957455 -11712.615274     31.949628                    
V  7  12036.219029   8776.386202  27028.993382       .020286                    
P  8  18518.583328  -2484.880521 -19062.823803       .030756                    
V  8  19698.560566  13749.294030  16744.517925      -.000080                    
P  9 -20605.446839 -15627.015613  -6537.000180    111.972733                    
V  9   7596.394436   1797.552791 -30859.364182       .025084                    
P 10  10012.519441 -19763.641226  14133.331074    -16.281902                    
V 10   2882.227450  18498.581094  23834.907393      -.011178                    
P 11  20702.293816  13610.381415 -10362.684374   -195.051552                    
V 11 -13314.094036    978.295910 -25872.283417      -.034095                    
P 12 -11833.739443 -16392.987036  17321.520539     28.706382                    
V 12   1136.549176 -21885.028317 -19776.217038       .023405                    
P 13  23309.483747  -2544.526777  12423.475857    246.471726                    
V 13 -13506.321984   8570.141671  26723.419224      -.019197                    
P 14 -20879.883149  15373.990466   5556.512725    176.957609                    
V 14  -7075.440648   1278.465863 -31252.441118       .017051                    
P 15 -10985.971675 -11229.205268 -21420.955820   -102.481407                    
V 15  22764.774649 -14987.192258  -3637.265288       .013206                    
P 16   1936.874317  26125.097725  -3241.381863   -203.537190                    
V 16  -2542.929067   4136.412592  31973.400478      -.021148                    
P 17  20683.928218 -15755.972930   4895.018310    170.491296                    
V 17   6721.400825   -485.021180 -31106.698010      -.018444                    
P 18 -15472.200350   3686.851288 -20898.572103    162.300237                    
V 18  -1099.375995 -27466.859235  -4332.759316       .018622                    
P 19   7563.424716  13284.881960 -21754.745966   -194.620236                    
V 19 -24660.074535  12294.731158   -707.709751      -.040028                    
P 20  13756.650777  14803.410260  17121.724624     54.437234                    
V 20   -688.983409  22191.253049 -18407.525090       .006046                    
P 21 -22741.791520   -889.108117 -13727.396215   -178.107301                    
V 21 -14534.076598 -10933.816544  23424.280570      -.024734                    
P 22 -11198.434819  18417.004890 -15269.273554    143.933518                    
V 22  -2975.342624 -19812.024193 -21572.731138      -.003923                    
P 23  18271.427154   4433.099237  18926.325476    267.643495                    
V 23 -19866.203585  13251.550060  15738.442578      -.031560                    
P 25 -15011.084774  -4423.697735  21435.664817     23.523828                    
V 25   -597.092614 -27261.481179  -6008.584380       .018120                    
P 26   1905.027897 -16657.868435 -21096.932144   -191.788972                    
V 26  23050.293785 -10862.726177  11352.047730      -.131153                    
P 27 -17675.128276 -16562.022670 -10682.402809    315.496600                    
V 27  13702.442681   4715.351891 -27914.942057       .036725                    
P 28  12102.459227 -15126.919235 -17526.323615     75.850071                    
V 28   1283.214629  23398.948244 -18995.096317       .031908                    
P 29 -23111.899153   2691.598293  12834.961537    248.701956                    
V 29  13033.652657  -9898.514888  25711.635475       .032946                    
P 30 -11399.026813  14568.506053  18707.694830     68.837867                    
V 30  -4673.669683 -24128.077421  15621.030680      -.069337                    
P 31  -6582.130176  13352.570925  22193.871298    155.855832                    
V 31 -24205.261202 -13340.587334   1065.275596       .052659                    
P 32   7776.467587  22320.470320  12803.229044   -345.977312                    
V 32  -3002.828760  15543.393797 -25360.458334      -.062277                    
EOF
